[{"OBJECT_NAME":"STARLINK-36254","OBJECT_ID":"2026-059T","EPOCH":"2026-04-11T07:12:54.995328","MEAN_MOTION":15.81067481,"ECCENTRICITY":5.368e-5,"INCLINATION":53.1573,"RA_OF_ASC_NODE":199.2996,"ARG_OF_PERICENTER":82.1154,"MEAN_ANOMALY":277.993,"EPHEMERIS_TYPE":0,"CLASSIFICATION_TYPE":"U","NORAD_CAT_ID":68338,"ELEMENT_SET_NO":999,"REV_AT_EPOCH":313,"BSTAR":0.0014633106,"MEAN_MOTION_DOT":0.00301109,"MEAN_MOTION_DDOT":0},{"OBJECT_NAME":"STARLINK-37200","OBJECT_ID":"2026-059U","EPOCH":"2026-04-11T07:14:01.633920","MEAN_MOTION":15.80971166,"ECCENTRICITY":2.605e-5,"INCLINATION":53.1575,"RA_OF_ASC_NODE":199.3051,"ARG_OF_PERICENTER":22.8093,"MEAN_ANOMALY":337.2941,"EPHEMERIS_TYPE":0,"CLASSIFICATION_TYPE":"U","NORAD_CAT_ID":68339,"ELEMENT_SET_NO":999,"REV_AT_EPOCH":313,"BSTAR":0.0012245208,"MEAN_MOTION_DOT":0.00249222,"MEAN_MOTION_DDOT":0},{"OBJECT_NAME":"STARLINK-37185","OBJECT_ID":"2026-059V","EPOCH":"2026-04-11T07:11:52.587744","MEAN_MOTION":15.80920506,"ECCENTRICITY":0.00013748,"INCLINATION":53.1578,"RA_OF_ASC_NODE":199.2947,"ARG_OF_PERICENTER":89.0998,"MEAN_ANOMALY":271.0182,"EPHEMERIS_TYPE":0,"CLASSIFICATION_TYPE":"U","NORAD_CAT_ID":68340,"ELEMENT_SET_NO":999,"REV_AT_EPOCH":313,"BSTAR":0.0013196912,"MEAN_MOTION_DOT":0.00268617,"MEAN_MOTION_DDOT":0},{"OBJECT_NAME":"STARLINK-37181","OBJECT_ID":"2026-059W","EPOCH":"2026-04-11T07:10:47.166528","MEAN_MOTION":15.80967878,"ECCENTRICITY":4.82e-5,"INCLINATION":53.1577,"RA_OF_ASC_NODE":199.2894,"ARG_OF_PERICENTER":3.5044,"MEAN_ANOMALY":356.5982,"EPHEMERIS_TYPE":0,"CLASSIFICATION_TYPE":"U","NORAD_CAT_ID":68341,"ELEMENT_SET_NO":999,"REV_AT_EPOCH":313,"BSTAR":0.0012210976,"MEAN_MOTION_DOT":0.0024846,"MEAN_MOTION_DDOT":0},{"OBJECT_NAME":"STARLINK-37192","OBJECT_ID":"2026-059X","EPOCH":"2026-04-11T06:00:02.000160","MEAN_MOTION":15.63714574,"ECCENTRICITY":9.445e-5,"INCLINATION":53.1598,"RA_OF_ASC_NODE":199.7728,"ARG_OF_PERICENTER":90.0946,"MEAN_ANOMALY":232.5583,"EPHEMERIS_TYPE":0,"CLASSIFICATION_TYPE":"U","NORAD_CAT_ID":68342,"ELEMENT_SET_NO":999,"REV_AT_EPOCH":427,"BSTAR":-0.022264336,"MEAN_MOTION_DOT":-0.01877349,"MEAN_MOTION_DDOT":0},{"OBJECT_NAME":"STARLINK-37158","OBJECT_ID":"2026-059Y","EPOCH":"2026-04-11T07:07:32.799360","MEAN_MOTION":15.80952807,"ECCENTRICITY":6.556e-5,"INCLINATION":53.1577,"RA_OF_ASC_NODE":199.2742,"ARG_OF_PERICENTER":49.4915,"MEAN_ANOMALY":310.6165,"EPHEMERIS_TYPE":0,"CLASSIFICATION_TYPE":"U","NORAD_CAT_ID":68343,"ELEMENT_SET_NO":999,"REV_AT_EPOCH":313,"BSTAR":0.00099499487,"MEAN_MOTION_DOT":0.0020106,"MEAN_MOTION_DDOT":0},{"OBJECT_NAME":"STARLINK-36380","OBJECT_ID":"2026-059Z","EPOCH":"2026-04-11T07:09:50.441472","MEAN_MOTION":15.80161445,"ECCENTRICITY":0.00014898,"INCLINATION":53.1575,"RA_OF_ASC_NODE":199.2851,"ARG_OF_PERICENTER":76.7053,"MEAN_ANOMALY":283.4136,"EPHEMERIS_TYPE":0,"CLASSIFICATION_TYPE":"U","NORAD_CAT_ID":68344,"ELEMENT_SET_NO":999,"REV_AT_EPOCH":313,"BSTAR":-0.0040960382,"MEAN_MOTION_DOT":-0.00720971,"MEAN_MOTION_DDOT":0},{"OBJECT_NAME":"STARLINK-37214","OBJECT_ID":"2026-059AA","EPOCH":"2026-04-11T07:05:23.164800","MEAN_MOTION":15.80946757,"ECCENTRICITY":0.00011734,"INCLINATION":53.1578,"RA_OF_ASC_NODE":199.2638,"ARG_OF_PERICENTER":351.6226,"MEAN_ANOMALY":8.4777,"EPHEMERIS_TYPE":0,"CLASSIFICATION_TYPE":"U","NORAD_CAT_ID":68345,"ELEMENT_SET_NO":999,"REV_AT_EPOCH":313,"BSTAR":0.0013032361,"MEAN_MOTION_DOT":0.00265483,"MEAN_MOTION_DDOT":0},{"OBJECT_NAME":"STARLINK-37169","OBJECT_ID":"2026-059AB","EPOCH":"2026-04-11T07:04:17.666688","MEAN_MOTION":15.80969255,"ECCENTRICITY":0.00018359,"INCLINATION":53.1579,"RA_OF_ASC_NODE":199.2584,"ARG_OF_PERICENTER":156.6181,"MEAN_ANOMALY":203.4925,"EPHEMERIS_TYPE":0,"CLASSIFICATION_TYPE":"U","NORAD_CAT_ID":68346,"ELEMENT_SET_NO":999,"REV_AT_EPOCH":313,"BSTAR":0.0009117652,"MEAN_MOTION_DOT":0.00183957,"MEAN_MOTION_DDOT":0},{"OBJECT_NAME":"STARLINK-37136","OBJECT_ID":"2026-059AC","EPOCH":"2026-04-11T07:03:13.774752","MEAN_MOTION":15.80946372,"ECCENTRICITY":9.808e-5,"INCLINATION":53.1578,"RA_OF_ASC_NODE":199.2536,"ARG_OF_PERICENTER":15.0745,"MEAN_ANOMALY":345.0307,"EPHEMERIS_TYPE":0,"CLASSIFICATION_TYPE":"U","NORAD_CAT_ID":68347,"ELEMENT_SET_NO":999,"REV_AT_EPOCH":313,"BSTAR":0.0010915055,"MEAN_MOTION_DOT":0.00221081,"MEAN_MOTION_DDOT":0},{"OBJECT_NAME":"STARLINK-37182","OBJECT_ID":"2026-059AD","EPOCH":"2026-04-11T07:06:27.855072","MEAN_MOTION":15.80977566,"ECCENTRICITY":6.782e-5,"INCLINATION":53.1579,"RA_OF_ASC_NODE":199.2686,"ARG_OF_PERICENTER":341.3024,"MEAN_ANOMALY":18.7974,"EPHEMERIS_TYPE":0,"CLASSIFICATION_TYPE":"U","NORAD_CAT_ID":68348,"ELEMENT_SET_NO":999,"REV_AT_EPOCH":313,"BSTAR":0.0014298646,"MEAN_MOTION_DOT":0.00292701,"MEAN_MOTION_DDOT":0},{"OBJECT_NAME":"STARLINK-37183","OBJECT_ID":"2026-059AE","EPOCH":"2026-04-11T07:02:08.236896","MEAN_MOTION":15.80996344,"ECCENTRICITY":0.00011832,"INCLINATION":53.1581,"RA_OF_ASC_NODE":199.2489,"ARG_OF_PERICENTER":80.491,"MEAN_ANOMALY":279.6247,"EPHEMERIS_TYPE":0,"CLASSIFICATION_TYPE":"U","NORAD_CAT_ID":68349,"ELEMENT_SET_NO":999,"REV_AT_EPOCH":313,"BSTAR":0.0011156327,"MEAN_MOTION_DOT":0.00226652,"MEAN_MOTION_DDOT":0},{"OBJECT_NAME":"CENTISPACE-1 OBJECT A","OBJECT_ID":"2026-060A","EPOCH":"2026-04-10T13:05:25.653984","MEAN_MOTION":14.7416855,"ECCENTRICITY":0.00145489,"INCLINATION":54.9791,"RA_OF_ASC_NODE":311.671,"ARG_OF_PERICENTER":308.4164,"MEAN_ANOMALY":51.5528,"EPHEMERIS_TYPE":0,"CLASSIFICATION_TYPE":"U","NORAD_CAT_ID":68350,"ELEMENT_SET_NO":999,"REV_AT_EPOCH":279,"BSTAR":-0.071553113,"MEAN_MOTION_DOT":-0.00450719,"MEAN_MOTION_DDOT":0},{"OBJECT_NAME":"CENTISPACE-1 OBJECT B","OBJECT_ID":"2026-060B","EPOCH":"2026-04-11T02:07:14.977920","MEAN_MOTION":14.7422233,"ECCENTRICITY":0.00119697,"INCLINATION":54.9816,"RA_OF_ASC_NODE":309.4589,"ARG_OF_PERICENTER":333.5601,"MEAN_ANOMALY":26.4786,"EPHEMERIS_TYPE":0,"CLASSIFICATION_TYPE":"U","NORAD_CAT_ID":68351,"ELEMENT_SET_NO":999,"REV_AT_EPOCH":287,"BSTAR":0.0002380766,"MEAN_MOTION_DOT":1.379e-5,"MEAN_MOTION_DDOT":0},{"OBJECT_NAME":"CENTISPACE-1 OBJECT C","OBJECT_ID":"2026-060C","EPOCH":"2026-04-10T16:19:07.586688","MEAN_MOTION":14.74350116,"ECCENTRICITY":0.00121325,"INCLINATION":54.9807,"RA_OF_ASC_NODE":311.1024,"ARG_OF_PERICENTER":355.4155,"MEAN_ANOMALY":4.6731,"EPHEMERIS_TYPE":0,"CLASSIFICATION_TYPE":"U","NORAD_CAT_ID":68352,"ELEMENT_SET_NO":999,"REV_AT_EPOCH":281,"BSTAR":2.7224766e-5,"MEAN_MOTION_DOT":-2.7e-7,"MEAN_MOTION_DDOT":0},{"OBJECT_NAME":"CENTISPACE-1 OBJECT D","OBJECT_ID":"2026-060D","EPOCH":"2026-04-10T14:41:29.440320","MEAN_MOTION":14.74540778,"ECCENTRICITY":0.00092283,"INCLINATION":54.9833,"RA_OF_ASC_NODE":311.3783,"ARG_OF_PERICENTER":348.8563,"MEAN_ANOMALY":11.223,"EPHEMERIS_TYPE":0,"CLASSIFICATION_TYPE":"U","NORAD_CAT_ID":68353,"ELEMENT_SET_NO":999,"REV_AT_EPOCH":280,"BSTAR":2.7714066e-5,"MEAN_MOTION_DOT":-2.2e-7,"MEAN_MOTION_DDOT":0}]
