STARLINK-36254          
1 68338U 26059T   26101.30063652  .00301109  00000+0  14633-2 0  9997
2 68338  53.1573 199.2996 0000536  82.1154 277.9930 15.81067481  3139
STARLINK-37200          
1 68339U 26059U   26101.30140780  .00249222  00000+0  12245-2 0  9990
2 68339  53.1575 199.3051 0000260  22.8093 337.2941 15.80971166  3137
STARLINK-37185          
1 68340U 26059V   26101.29991421  .00268617  00000+0  13197-2 0  9992
2 68340  53.1578 199.2947 0001374  89.0998 271.0182 15.80920506  3135
STARLINK-37181          
1 68341U 26059W   26101.29915702  .00248460  00000+0  12211-2 0  9991
2 68341  53.1577 199.2894 0000482   3.5044 356.5982 15.80967878  3138
STARLINK-37192          
1 68342U 26059X   26101.25002315 -.01877349  00000+0 -22264-1 0  9990
2 68342  53.1598 199.7728 0000944  90.0946 232.5583 15.63714574  4278
STARLINK-37158          
1 68343U 26059Y   26101.29690740  .00201060  00000+0  99499-3 0  9994
2 68343  53.1577 199.2742 0000655  49.4915 310.6165 15.80952807  3130
STARLINK-36380          
1 68344U 26059Z   26101.29850048 -.00720971  00000+0 -40960-2 0  9991
2 68344  53.1575 199.2851 0001489  76.7053 283.4136 15.80161445  3137
STARLINK-37214          
1 68345U 26059AA  26101.29540700  .00265483  00000+0  13032-2 0  9993
2 68345  53.1578 199.2638 0001173 351.6226   8.4777 15.80946757  3134
STARLINK-37169          
1 68346U 26059AB  26101.29464892  .00183957  00000+0  91177-3 0  9993
2 68346  53.1579 199.2584 0001835 156.6181 203.4925 15.80969255  3134
STARLINK-37136          
1 68347U 26059AC  26101.29390943  .00221081  00000+0  10915-2 0  9990
2 68347  53.1578 199.2536 0000980  15.0745 345.0307 15.80946372  3137
STARLINK-37182          
1 68348U 26059AD  26101.29615573  .00292701  00000+0  14299-2 0  9996
2 68348  53.1579 199.2686 0000678 341.3024  18.7974 15.80977566  3137
STARLINK-37183          
1 68349U 26059AE  26101.29315089  .00226652  00000+0  11156-2 0  9997
2 68349  53.1581 199.2489 0001183  80.4910 279.6247 15.80996344  3135
CENTISPACE-1 OBJECT A   
1 68350U 26060A   26100.54543581 -.00450719  00000+0 -71553-1 0  9999
2 68350  54.9791 311.6710 0014548 308.4164  51.5528 14.74168550  2791
CENTISPACE-1 OBJECT B   
1 68351U 26060B   26101.08836780  .00001379  00000+0  23808-3 0  9990
2 68351  54.9816 309.4589 0011969 333.5601  26.4786 14.74222330  2871
CENTISPACE-1 OBJECT C   
1 68352U 26060C   26100.67994892 -.00000027  00000+0  27225-4 0  9992
2 68352  54.9807 311.1024 0012132 355.4155   4.6731 14.74350116  2812
CENTISPACE-1 OBJECT D   
1 68353U 26060D   26100.61214630 -.00000022  00000+0  27714-4 0  9990
2 68353  54.9833 311.3783 0009228 348.8563  11.2230 14.74540778  2809
